GLOBAL-2                
1 43812U 18099BG  23032.48251857  .00001496  00000+0  13360-3 0  9990
2 43812  97.5907  97.9778 0011965 216.4494 143.5915 14.97346528226913
BRIO                    
1 43813U 18099BH  23033.14342716  .00007607  00000+0  61064-3 0  9994
2 43813  97.6171 103.0825 0009694 189.8270 170.2766 15.00308576227223
FALCONSAT-6             
1 43815U 18099BK  23033.15109845  .00004725  00000+0  33977-3 0  9991
2 43815  97.6305 102.6118 0028831 216.8540 143.0705 15.04399555227210
SPACEBEE-7              
1 43816U 18099BL  23033.11447878  .00005571  00000+0  45492-3 0  9994
2 43816  97.5977 100.8500 0013360 196.8760 163.2021 14.99730125227043
SPACEBEE-5              
1 43817U 18099BM  23032.14496433  .00020187  00000+0  13380-2 0  9998
2 43817  97.6114 104.7939 0004709 195.8089 164.2992 15.07308618227133
SPACEBEE-6              
1 43818U 18099BN  23032.18897431  .00009138  00000+0  70373-3 0  9995
2 43818  97.6120 101.4392 0013353 214.0596 145.9773 15.01805019227123
EXCITE                  
1 43819U 18099BP  23033.13823810  .00002006  00000+0  17927-3 0  9995
2 43819  97.5905  98.3746 0011938 213.5530 146.4937 14.96947025226999
SEAHAWK-1               
1 43820U 18099BQ  23033.14476067  .00002954  00000+0  25307-3 0  9999
2 43820  97.5902  98.6477 0011003 200.1729 159.9060 14.98265176226850
GEO-KOMPSAT-2A          
1 43823U 18100A   23032.88136997 -.00000341  00000+0  00000+0 0  9998
2 43823   0.0241  99.8318 0000859 283.8053 193.7365  1.00269445 15313
GSAT-11                 
1 43824U 18100B   23032.51201373 -.00000074  00000+0  00000+0 0  9993
2 43824   0.0645 266.3032 0002397 157.6084 325.8078  1.00271899 15121
SAUDISAT 5A             
1 43831U 18102A   23033.21328542  .00003682  00000+0  22740-3 0  9995
2 43831  97.4720 106.0197 0015109 108.7022 315.6870 15.10399531228841
SAUDISAT 5B             
1 43833U 18102C   23033.17161097  .00002767  00000+0  16966-3 0  9998
2 43833  97.4740 107.1417 0016002 113.6454 330.2893 15.10864707228894
TOMSAT R3 (AEROCUBE 11B)
1 43849U 18104A   23032.13846700  .00020503  00000+0  59261-3 0  9996
2 43849  85.0276 257.9713 0014692 116.8899 243.3854 15.35401532229692
SHIELDS 1               
1 43850U 18104B   23032.58974255  .00005138  00000+0  19889-3 0  9993
2 43850  85.0256 259.9519 0015013 132.4226 227.8291 15.25815262229414
ELECTRON KICK STAGE R/B 
1 43851U 18104C   23033.13175771  .00026456  00000+0  68091-3 0  9997
2 43851  85.0272 256.1626 0012280  99.2786 260.9854 15.39024977229957
STF-1                   
1 43852U 18104D   23032.11146155  .00018024  00000+0  56218-3 0  9999
2 43852  85.0263 259.5560 0012429 137.6552 222.5658 15.33026799229487
2018-104F               
1 43854U 18104F   23033.11491728  .00029298  00000+0  72283-3 0  9996
2 43854  85.0193 253.9503 0014052  94.7867 265.4990 15.40285692230004
