[{"OBJECT_NAME":"GLOBAL-2","OBJECT_ID":"2018-099BG","EPOCH":"2023-02-01T11:34:49.604448","MEAN_MOTION":14.97346528,"ECCENTRICITY":0.0011965,"INCLINATION":97.5907,"RA_OF_ASC_NODE":97.9778,"ARG_OF_PERICENTER":216.4494,"MEAN_ANOMALY":143.5915,"EPHEMERIS_TYPE":0,"CLASSIFICATION_TYPE":"U","NORAD_CAT_ID":43812,"ELEMENT_SET_NO":999,"REV_AT_EPOCH":22691,"BSTAR":0.0001336,"MEAN_MOTION_DOT":1.496e-5,"MEAN_MOTION_DDOT":0},{"OBJECT_NAME":"BRIO","OBJECT_ID":"2018-099BH","EPOCH":"2023-02-02T03:26:32.106624","MEAN_MOTION":15.00308576,"ECCENTRICITY":0.0009694,"INCLINATION":97.6171,"RA_OF_ASC_NODE":103.0825,"ARG_OF_PERICENTER":189.827,"MEAN_ANOMALY":170.2766,"EPHEMERIS_TYPE":0,"CLASSIFICATION_TYPE":"U","NORAD_CAT_ID":43813,"ELEMENT_SET_NO":999,"REV_AT_EPOCH":22722,"BSTAR":0.00061064,"MEAN_MOTION_DOT":7.607e-5,"MEAN_MOTION_DDOT":0},{"OBJECT_NAME":"FALCONSAT-6","OBJECT_ID":"2018-099BK","EPOCH":"2023-02-02T03:37:34.906080","MEAN_MOTION":15.04399555,"ECCENTRICITY":0.0028831,"INCLINATION":97.6305,"RA_OF_ASC_NODE":102.6118,"ARG_OF_PERICENTER":216.854,"MEAN_ANOMALY":143.0705,"EPHEMERIS_TYPE":0,"CLASSIFICATION_TYPE":"U","NORAD_CAT_ID":43815,"ELEMENT_SET_NO":999,"REV_AT_EPOCH":22721,"BSTAR":0.00033977,"MEAN_MOTION_DOT":4.725e-5,"MEAN_MOTION_DDOT":0},{"OBJECT_NAME":"SPACEBEE-7","OBJECT_ID":"2018-099BL","EPOCH":"2023-02-02T02:44:50.966592","MEAN_MOTION":14.99730125,"ECCENTRICITY":0.001336,"INCLINATION":97.5977,"RA_OF_ASC_NODE":100.85,"ARG_OF_PERICENTER":196.876,"MEAN_ANOMALY":163.2021,"EPHEMERIS_TYPE":0,"CLASSIFICATION_TYPE":"U","NORAD_CAT_ID":43816,"ELEMENT_SET_NO":999,"REV_AT_EPOCH":22704,"BSTAR":0.00045492,"MEAN_MOTION_DOT":5.571e-5,"MEAN_MOTION_DDOT":0},{"OBJECT_NAME":"SPACEBEE-5","OBJECT_ID":"2018-099BM","EPOCH":"2023-02-01T03:28:44.918112","MEAN_MOTION":15.07308618,"ECCENTRICITY":0.0004709,"INCLINATION":97.6114,"RA_OF_ASC_NODE":104.7939,"ARG_OF_PERICENTER":195.8089,"MEAN_ANOMALY":164.2992,"EPHEMERIS_TYPE":0,"CLASSIFICATION_TYPE":"U","NORAD_CAT_ID":43817,"ELEMENT_SET_NO":999,"REV_AT_EPOCH":22713,"BSTAR":0.001338,"MEAN_MOTION_DOT":0.00020187,"MEAN_MOTION_DDOT":0},{"OBJECT_NAME":"SPACEBEE-6","OBJECT_ID":"2018-099BN","EPOCH":"2023-02-01T04:32:07.380384","MEAN_MOTION":15.01805019,"ECCENTRICITY":0.0013353,"INCLINATION":97.612,"RA_OF_ASC_NODE":101.4392,"ARG_OF_PERICENTER":214.0596,"MEAN_ANOMALY":145.9773,"EPHEMERIS_TYPE":0,"CLASSIFICATION_TYPE":"U","NORAD_CAT_ID":43818,"ELEMENT_SET_NO":999,"REV_AT_EPOCH":22712,"BSTAR":0.00070373,"MEAN_MOTION_DOT":9.138e-5,"MEAN_MOTION_DDOT":0},{"OBJECT_NAME":"EXCITE","OBJECT_ID":"2018-099BP","EPOCH":"2023-02-02T03:19:03.771840","MEAN_MOTION":14.96947025,"ECCENTRICITY":0.0011938,"INCLINATION":97.5905,"RA_OF_ASC_NODE":98.3746,"ARG_OF_PERICENTER":213.553,"MEAN_ANOMALY":146.4937,"EPHEMERIS_TYPE":0,"CLASSIFICATION_TYPE":"U","NORAD_CAT_ID":43819,"ELEMENT_SET_NO":999,"REV_AT_EPOCH":22699,"BSTAR":0.00017927,"MEAN_MOTION_DOT":2.006e-5,"MEAN_MOTION_DDOT":0},{"OBJECT_NAME":"SEAHAWK-1","OBJECT_ID":"2018-099BQ","EPOCH":"2023-02-02T03:28:27.321888","MEAN_MOTION":14.98265176,"ECCENTRICITY":0.0011003,"INCLINATION":97.5902,"RA_OF_ASC_NODE":98.6477,"ARG_OF_PERICENTER":200.1729,"MEAN_ANOMALY":159.906,"EPHEMERIS_TYPE":0,"CLASSIFICATION_TYPE":"U","NORAD_CAT_ID":43820,"ELEMENT_SET_NO":999,"REV_AT_EPOCH":22685,"BSTAR":0.00025307,"MEAN_MOTION_DOT":2.954e-5,"MEAN_MOTION_DDOT":0},{"OBJECT_NAME":"GEO-KOMPSAT-2A","OBJECT_ID":"2018-100A","EPOCH":"2023-02-01T21:09:10.365408","MEAN_MOTION":1.00269445,"ECCENTRICITY":8.59e-5,"INCLINATION":0.0241,"RA_OF_ASC_NODE":99.8318,"ARG_OF_PERICENTER":283.8053,"MEAN_ANOMALY":193.7365,"EPHEMERIS_TYPE":0,"CLASSIFICATION_TYPE":"U","NORAD_CAT_ID":43823,"ELEMENT_SET_NO":999,"REV_AT_EPOCH":1531,"BSTAR":0,"MEAN_MOTION_DOT":-3.41e-6,"MEAN_MOTION_DDOT":0},{"OBJECT_NAME":"GSAT-11","OBJECT_ID":"2018-100B","EPOCH":"2023-02-01T12:17:17.986272","MEAN_MOTION":1.00271899,"ECCENTRICITY":0.0002397,"INCLINATION":0.0645,"RA_OF_ASC_NODE":266.3032,"ARG_OF_PERICENTER":157.6084,"MEAN_ANOMALY":325.8078,"EPHEMERIS_TYPE":0,"CLASSIFICATION_TYPE":"U","NORAD_CAT_ID":43824,"ELEMENT_SET_NO":999,"REV_AT_EPOCH":1512,"BSTAR":0,"MEAN_MOTION_DOT":-7.4e-7,"MEAN_MOTION_DDOT":0},{"OBJECT_NAME":"SAUDISAT 5A","OBJECT_ID":"2018-102A","EPOCH":"2023-02-02T05:07:07.860288","MEAN_MOTION":15.10399531,"ECCENTRICITY":0.0015109,"INCLINATION":97.472,"RA_OF_ASC_NODE":106.0197,"ARG_OF_PERICENTER":108.7022,"MEAN_ANOMALY":315.687,"EPHEMERIS_TYPE":0,"CLASSIFICATION_TYPE":"U","NORAD_CAT_ID":43831,"ELEMENT_SET_NO":999,"REV_AT_EPOCH":22884,"BSTAR":0.0002274,"MEAN_MOTION_DOT":3.682e-5,"MEAN_MOTION_DDOT":0},{"OBJECT_NAME":"SAUDISAT 5B","OBJECT_ID":"2018-102C","EPOCH":"2023-02-02T04:07:07.187808","MEAN_MOTION":15.10864707,"ECCENTRICITY":0.0016002,"INCLINATION":97.474,"RA_OF_ASC_NODE":107.1417,"ARG_OF_PERICENTER":113.6454,"MEAN_ANOMALY":330.2893,"EPHEMERIS_TYPE":0,"CLASSIFICATION_TYPE":"U","NORAD_CAT_ID":43833,"ELEMENT_SET_NO":999,"REV_AT_EPOCH":22889,"BSTAR":0.00016966,"MEAN_MOTION_DOT":2.767e-5,"MEAN_MOTION_DDOT":0},{"OBJECT_NAME":"TOMSAT R3 (AEROCUBE 11B)","OBJECT_ID":"2018-104A","EPOCH":"2023-02-01T03:19:23.548800","MEAN_MOTION":15.35401532,"ECCENTRICITY":0.0014692,"INCLINATION":85.0276,"RA_OF_ASC_NODE":257.9713,"ARG_OF_PERICENTER":116.8899,"MEAN_ANOMALY":243.3854,"EPHEMERIS_TYPE":0,"CLASSIFICATION_TYPE":"U","NORAD_CAT_ID":43849,"ELEMENT_SET_NO":999,"REV_AT_EPOCH":22969,"BSTAR":0.00059261,"MEAN_MOTION_DOT":0.00020503,"MEAN_MOTION_DDOT":0},{"OBJECT_NAME":"SHIELDS 1","OBJECT_ID":"2018-104B","EPOCH":"2023-02-01T14:09:13.756320","MEAN_MOTION":15.25815262,"ECCENTRICITY":0.0015013,"INCLINATION":85.0256,"RA_OF_ASC_NODE":259.9519,"ARG_OF_PERICENTER":132.4226,"MEAN_ANOMALY":227.8291,"EPHEMERIS_TYPE":0,"CLASSIFICATION_TYPE":"U","NORAD_CAT_ID":43850,"ELEMENT_SET_NO":999,"REV_AT_EPOCH":22941,"BSTAR":0.00019889,"MEAN_MOTION_DOT":5.138e-5,"MEAN_MOTION_DDOT":0},{"OBJECT_NAME":"ELECTRON KICK STAGE R\/B","OBJECT_ID":"2018-104C","EPOCH":"2023-02-02T03:09:43.866144","MEAN_MOTION":15.39024977,"ECCENTRICITY":0.001228,"INCLINATION":85.0272,"RA_OF_ASC_NODE":256.1626,"ARG_OF_PERICENTER":99.2786,"MEAN_ANOMALY":260.9854,"EPHEMERIS_TYPE":0,"CLASSIFICATION_TYPE":"U","NORAD_CAT_ID":43851,"ELEMENT_SET_NO":999,"REV_AT_EPOCH":22995,"BSTAR":0.00068091,"MEAN_MOTION_DOT":0.00026456,"MEAN_MOTION_DDOT":0},{"OBJECT_NAME":"STF-1","OBJECT_ID":"2018-104D","EPOCH":"2023-02-01T02:40:30.277920","MEAN_MOTION":15.33026799,"ECCENTRICITY":0.0012429,"INCLINATION":85.0263,"RA_OF_ASC_NODE":259.556,"ARG_OF_PERICENTER":137.6552,"MEAN_ANOMALY":222.5658,"EPHEMERIS_TYPE":0,"CLASSIFICATION_TYPE":"U","NORAD_CAT_ID":43852,"ELEMENT_SET_NO":999,"REV_AT_EPOCH":22948,"BSTAR":0.00056218,"MEAN_MOTION_DOT":0.00018024,"MEAN_MOTION_DDOT":0},{"OBJECT_NAME":"2018-104F","OBJECT_ID":"2018-104F","EPOCH":"2023-02-02T02:45:28.852992","MEAN_MOTION":15.40285692,"ECCENTRICITY":0.0014052,"INCLINATION":85.0193,"RA_OF_ASC_NODE":253.9503,"ARG_OF_PERICENTER":94.7867,"MEAN_ANOMALY":265.499,"EPHEMERIS_TYPE":0,"CLASSIFICATION_TYPE":"U","NORAD_CAT_ID":43854,"ELEMENT_SET_NO":999,"REV_AT_EPOCH":23000,"BSTAR":0.00072283,"MEAN_MOTION_DOT":0.00029298,"MEAN_MOTION_DDOT":0}]
